$$SOE
2461302.500000000, A.D. 2026-Sep-19 00:00:00.0000, 2.927223038650657E+09, 5.689072133167158E+09, -9.182617921824431E+07,
2461309.500000000, A.D. 2026-Sep-26 00:00:00.0000, 2.924710461206456E+09, 5.690396828197888E+09, -9.172982967325878E+07,
2461316.500000000, A.D. 2026-Oct-03 00:00:00.0000, 2.922197366101050E+09, 5.691720413369071E+09, -9.163346297542381E+07,
2461323.500000000, A.D. 2026-Oct-10 00:00:00.0000, 2.919683753510422E+09, 5.693042886335287E+09, -9.153707910553575E+07,
2461330.500000000, A.D. 2026-Oct-17 00:00:00.0000, 2.917169623991708E+09, 5.694364244616308E+09, -9.144067806821227E+07,
2461337.500000000, A.D. 2026-Oct-24 00:00:00.0000, 2.914654978421360E+09, 5.695684485570158E+09, -9.134425989408779E+07,
2461344.500000000, A.D. 2026-Oct-31 00:00:00.0000, 2.912139818021514E+09, 5.697003606203426E+09, -9.124782466403580E+07,
2461351.500000000, A.D. 2026-Nov-07 00:00:00.0000, 2.909624144813634E+09, 5.698321602892964E+09, -9.115137258031869E+07,
2461358.500000000, A.D. 2026-Nov-14 00:00:00.0000, 2.907107962700321E+09, 5.699638471906347E+09, -9.105490403033924E+07,
2461365.500000000, A.D. 2026-Nov-21 00:00:00.0000, 2.904591277363508E+09, 5.700954211403019E+09, -9.095841942089510E+07,
2461372.500000000, A.D. 2026-Nov-28 00:00:00.0000, 2.902074093980976E+09, 5.702268821908039E+09, -9.086191893694305E+07,
2461379.500000000, A.D. 2026-Dec-05 00:00:00.0000, 2.899556416380716E+09, 5.703582304602081E+09, -9.076540261019301E+07,
2461386.500000000, A.D. 2026-Dec-12 00:00:00.0000, 2.897038247798052E+09, 5.704894660538711E+09, -9.066887045815825E+07,
2461393.500000000, A.D. 2026-Dec-19 00:00:00.0000, 2.894519591348283E+09, 5.706205890795321E+09, -9.057232251975060E+07,
2461400.500000000, A.D. 2026-Dec-26 00:00:00.0000, 2.892000450072391E+09, 5.707515996689701E+09, -9.047575884510183E+07,
2461407.500000000, A.D. 2027-Jan-02 00:00:00.0000, 2.889480826831410E+09, 5.708824979871145E+09, -9.037917948032022E+07,
2461414.500000000, A.D. 2027-Jan-09 00:00:00.0000, 2.886960724165772E+09, 5.710132842306149E+09, -9.028258445615292E+07,
2461421.500000000, A.D. 2027-Jan-16 00:00:00.0000, 2.884440144153929E+09, 5.711439586167280E+09, -9.018597378299022E+07,
2461428.500000000, A.D. 2027-Jan-23 00:00:00.0000, 2.881919088314825E+09, 5.712745213585351E+09, -9.008934745964479E+07,
2461435.500000000, A.D. 2027-Jan-30 00:00:00.0000, 2.879397557740350E+09, 5.714049726217010E+09, -8.999270551707888E+07,
2461442.500000000, A.D. 2027-Feb-06 00:00:00.0000, 2.876875553880857E+09, 5.715353124967517E+09, -8.989604810830688E+07,
2461449.500000000, A.D. 2027-Feb-13 00:00:00.0000, 2.874353079521878E+09, 5.716655411088350E+09, -8.979937550274444E+07,
2461456.500000000, A.D. 2027-Feb-20 00:00:00.0000, 2.871830137586829E+09, 5.717956587858472E+09, -8.970268783299398E+07,
2461463.500000000, A.D. 2027-Feb-27 00:00:00.0000, 2.869306729160693E+09, 5.719256659635587E+09, -8.960598498492932E+07,
2461470.500000000, A.D. 2027-Mar-06 00:00:00.0000, 2.866782853752153E+09, 5.720555630199920E+09, -8.950926675097823E+07,
2461477.500000000, A.D. 2027-Mar-13 00:00:00.0000, 2.864258510193651E+09, 5.721853502439982E+09, -8.941253293254089E+07,
2461484.500000000, A.D. 2027-Mar-20 00:00:00.0000, 2.861733697049811E+09, 5.723150278545680E+09, -8.931578335634232E+07,
2461491.500000000, A.D. 2027-Mar-27 00:00:00.0000, 2.859208412736171E+09, 5.724445960159822E+09, -8.921901786824965E+07,
2461498.500000000, A.D. 2027-Apr-03 00:00:00.0000, 2.856682655551146E+09, 5.725740548440285E+09, -8.912223632717896E+07,
2461505.500000000, A.D. 2027-Apr-10 00:00:00.0000, 2.854156423682453E+09, 5.727034044055921E+09, -8.902543860289121E+07,
2461512.500000000, A.D. 2027-Apr-17 00:00:00.0000, 2.851629715210067E+09, 5.728326447101856E+09, -8.892862458092308E+07,
2461519.500000000, A.D. 2027-Apr-24 00:00:00.0000, 2.849102528184937E+09, 5.729617756872066E+09, -8.883179418702149E+07,
2461526.500000000, A.D. 2027-May-01 00:00:00.0000, 2.846574861083071E+09, 5.730907971517000E+09, -8.873494745629025E+07,
2461533.500000000, A.D. 2027-May-08 00:00:00.0000, 2.844046713942428E+09, 5.732197088334676E+09, -8.863808461408472E+07,
2461540.500000000, A.D. 2027-May-15 00:00:00.0000, 2.841518088685679E+09, 5.733485105648664E+09, -8.854120595341182E+07,
2461547.500000000, A.D. 2027-May-22 00:00:00.0000, 2.838988987065044E+09, 5.734772023681354E+09, -8.844431157717562E+07,
2461554.500000000, A.D. 2027-May-29 00:00:00.0000, 2.836459409585076E+09, 5.736057842954279E+09, -8.834740143298316E+07,
2461561.500000000, A.D. 2027-Jun-05 00:00:00.0000, 2.833929356288272E+09, 5.737342563347190E+09, -8.825047546563745E+07,
2461568.500000000, A.D. 2027-Jun-12 00:00:00.0000, 2.831398827395945E+09, 5.738626184247753E+09, -8.815353366779923E+07,
2461575.500000000, A.D. 2027-Jun-19 00:00:00.0000, 2.828867823473367E+09, 5.739908704856765E+09, -8.805657607470560E+07,
2461582.500000000, A.D. 2027-Jun-26 00:00:00.0000, 2.826336345398588E+09, 5.741190124387662E+09, -8.795960274978399E+07,
2461589.500000000, A.D. 2027-Jul-03 00:00:00.0000, 2.823804394267051E+09, 5.742470442168565E+09, -8.786261377234888E+07,
2461596.500000000, A.D. 2027-Jul-10 00:00:00.0000, 2.821271971268858E+09, 5.743749657655593E+09, -8.776560922983479E+07,
2461603.500000000, A.D. 2027-Jul-17 00:00:00.0000, 2.818739077575029E+09, 5.745027770318599E+09, -8.766858922081733E+07,
2461610.500000000, A.D. 2027-Jul-24 00:00:00.0000, 2.816205714389188E+09, 5.746304779336504E+09, -8.757155388804841E+07,
2461617.500000000, A.D. 2027-Jul-31 00:00:00.0000, 2.813671883576085E+09, 5.747580683337772E+09, -8.747450349978757E+07,
2461624.500000000, A.D. 2027-Aug-07 00:00:00.0000, 2.811137588666266E+09, 5.748855481337713E+09, -8.737743846668243E+07,
2461631.500000000, A.D. 2027-Aug-14 00:00:00.0000, 2.808602833935747E+09, 5.750129174619340E+09, -8.728035910377526E+07,
2461638.500000000, A.D. 2027-Aug-21 00:00:00.0000, 2.806067622178899E+09, 5.751401766193564E+09, -8.718326546920300E+07,
2461645.500000000, A.D. 2027-Aug-28 00:00:00.0000, 2.803531954605659E+09, 5.752673259041995E+09, -8.708615749599552E+07,
2461652.500000000, A.D. 2027-Sep-04 00:00:00.0000, 2.800995831681853E+09, 5.753943655644588E+09, -8.698903510425305E+07,
2461659.500000000, A.D. 2027-Sep-11 00:00:00.0000, 2.798459253517359E+09, 5.755212958130891E+09, -8.689189821997476E+07,
2461666.500000000, A.D. 2027-Sep-18 00:00:00.0000, 2.795922219935295E+09, 5.756481168404777E+09, -8.679474676614285E+07,
2461673.500000000, A.D. 2027-Sep-25 00:00:00.0000, 2.793384730451068E+09, 5.757748288165298E+09, -8.669758065364933E+07,
2461680.500000000, A.D. 2027-Oct-02 00:00:00.0000, 2.790846784236369E+09, 5.759014318851524E+09, -8.660039977696609E+07,
2461687.500000000, A.D. 2027-Oct-09 00:00:00.0000, 2.788308380090634E+09, 5.760279261507288E+09, -8.650320401724219E+07,
2461694.500000000, A.D. 2027-Oct-16 00:00:00.0000, 2.785769516483211E+09, 5.761543116511358E+09, -8.640599326332998E+07,
2461701.500000000, A.D. 2027-Oct-23 00:00:00.0000, 2.783230191926283E+09, 5.762805883167755E+09, -8.630876747522736E+07,
2461708.500000000, A.D. 2027-Oct-30 00:00:00.0000, 2.780690406053358E+09, 5.764067559766882E+09, -8.621152677457595E+07,
2461715.500000000, A.D. 2027-Nov-06 00:00:00.0000, 2.778150160240010E+09, 5.765328145245894E+09, -8.611427136340380E+07,
2461722.500000000, A.D. 2027-Nov-13 00:00:00.0000, 2.775609455781542E+09, 5.766587640372330E+09, -8.601700125876641E+07,
2461729.500000000, A.D. 2027-Nov-20 00:00:00.0000, 2.773068292529440E+09, 5.767846046265292E+09, -8.591971628808260E+07,
2461736.500000000, A.D. 2027-Nov-27 00:00:00.0000, 2.770526669604263E+09, 5.769103363218763E+09, -8.582241625123334E+07,
2461743.500000000, A.D. 2027-Dec-04 00:00:00.0000, 2.767984586161395E+09, 5.770359590741058E+09, -8.572510098910165E+07,
2461750.500000000, A.D. 2027-Dec-11 00:00:00.0000, 2.765442041659115E+09, 5.771614727846554E+09, -8.562777038679171E+07,
2461757.500000000, A.D. 2027-Dec-18 00:00:00.0000, 2.762899035903952E+09, 5.772868773260641E+09, -8.553042436437321E+07,
2461764.500000000, A.D. 2027-Dec-25 00:00:00.0000, 2.760355569025317E+09, 5.774121725535895E+09, -8.543306286919165E+07,
2461771.500000000, A.D. 2028-Jan-01 00:00:00.0000, 2.757811641420835E+09, 5.775373583094110E+09, -8.533568587222552E+07,
$$EOE